{"type": "FeatureCollection", "features": [ {"type": "Feature", "properties": {"norad_id": 32461, "name": "FENGYUN 1C DEB", "group": "fengyun-1c-debris", "lat": 5.097317717222328, "lon": -165.23177701858597, "alt_km": 1102.7453999621603, "timestamp": "2025-12-05T09:41:19.416568+00:00", "meta": {"OBJECT_NAME": "FENGYUN 1C DEB", "OBJECT_ID": "1999-025DBZ", "EPOCH": "2025-12-03T02:25:21.166752", "MEAN_MOTION": 13.72796083, "ECCENTRICITY": 0.02319021, "INCLINATION": 98.3345, "RA_OF_ASC_NODE": 193.5106, "ARG_OF_PERICENTER": 142.9947, "MEAN_ANOMALY": 10.0781, "EPHEMERIS_TYPE": 0, "CLASSIFICATION_TYPE": "U", "NORAD_CAT_ID": 32461, "ELEMENT_SET_NO": 999, "REV_AT_EPOCH": 67162, "BSTAR": 0.0012933727, "MEAN_MOTION_DOT": 1.409e-05, "MEAN_MOTION_DDOT": 0}, "tle": {"line1": "1 32461U 99025DBZ 25337.10093943  .00001409  00000+0  12934-2 0  9994", "line2": "2 32461  98.3345 193.5106 0231902 142.9947  10.0781 13.72796083671623"}}, "geometry": {"type": "Point", "coordinates": [-165.23177701858597, 5.097317717222328]}}, {"type": "Feature", "properties": {"norad_id": 32464, "name": "FENGYUN 1C DEB", "group": "fengyun-1c-debris", "lat": 15.913956244946144, "lon": -173.6889676020402, "alt_km": 600.1731575590347, "timestamp": "2025-12-05T09:41:19.416579+00:00", "meta": {"OBJECT_NAME": "FENGYUN 1C DEB", "OBJECT_ID": "1999-025DCC", "EPOCH": "2025-12-01T19:39:49.615200", "MEAN_MOTION": 14.92402784, "ECCENTRICITY": 0.01131409, "INCLINATION": 97.3575, "RA_OF_ASC_NODE": 0.8492, "ARG_OF_PERICENTER": 273.2898, "MEAN_ANOMALY": 85.5384, "EPHEMERIS_TYPE": 0, "CLASSIFICATION_TYPE": "U", "NORAD_CAT_ID": 32464, "ELEMENT_SET_NO": 999, "REV_AT_EPOCH": 60629, "BSTAR": 0.001374684, "MEAN_MOTION_DOT": 0.00015906, "MEAN_MOTION_DDOT": 0}, "tle": {"line1": "1 32464U 99025DCC 25335.81932425  .00015906  00000+0  13747-2 0  9990", "line2": "2 32464  97.3575   0.8492 0113140 273.2898  85.5384 14.92402784606296"}}, "geometry": {"type": "Point", "coordinates": [-173.6889676020402, 15.913956244946144]}}, {"type": "Feature", "properties": {"norad_id": 33502, "name": "FENGYUN 1C DEB", "group": "fengyun-1c-debris", "lat": 67.49418129249754, "lon": 124.54930627198279, "alt_km": 787.3599623239461, "timestamp": "2025-12-05T09:41:19.416590+00:00", "meta": {"OBJECT_NAME": "FENGYUN 1C DEB", "OBJECT_ID": "1999-025DCF", "EPOCH": "2025-12-04T08:25:44.973408", "MEAN_MOTION": 14.21729472, "ECCENTRICITY": 0.0078814, "INCLINATION": 99.025, "RA_OF_ASC_NODE": 280.9171, "ARG_OF_PERICENTER": 177.423, "MEAN_ANOMALY": 310.1683, "EPHEMERIS_TYPE": 0, "CLASSIFICATION_TYPE": "U", "NORAD_CAT_ID": 33502, "ELEMENT_SET_NO": 999, "REV_AT_EPOCH": 86836, "BSTAR": 0.0056526, "MEAN_MOTION_DOT": 0.000128, "MEAN_MOTION_DDOT": 0}, "tle": {"line1": "1 33502U 99025DCF 25338.35121497  .00012800  00000+0  56526-2 0  9997", "line2": "2 33502  99.0250 280.9171 0078814 177.4230 310.1683 14.21729472868362"}}, "geometry": {"type": "Point", "coordinates": [124.54930627198279, 67.49418129249754]}}, {"type": "Feature", "properties": {"norad_id": 33599, "name": "FENGYUN 1C DEB", "group": "fengyun-1c-debris", "lat": 75.2545380380521, "lon": -105.71299408393507, "alt_km": 578.7144029309802, "timestamp": "2025-12-05T09:41:19.416600+00:00", "meta": {"OBJECT_NAME": "FENGYUN 1C DEB", "OBJECT_ID": "1999-025DCG", "EPOCH": "2025-11-20T10:50:20.760288", "MEAN_MOTION": 15.13875085, "ECCENTRICITY": 0.01305425, "INCLINATION": 96.6164, "RA_OF_ASC_NODE": 35.1071, "ARG_OF_PERICENTER": 19.0845, "MEAN_ANOMALY": 341.5213, "EPHEMERIS_TYPE": 0, "CLASSIFICATION_TYPE": "U", "NORAD_CAT_ID": 33599, "ELEMENT_SET_NO": 999, "REV_AT_EPOCH": 65666, "BSTAR": 0.0014461331, "MEAN_MOTION_DOT": 0.00032405, "MEAN_MOTION_DDOT": 0}, "tle": {"line1": "1 33599U 99025DCG 25324.45162917  .00032405  00000+0  14461-2 0  9996", "line2": "2 33599  96.6164  35.1071 0130542  19.0845 341.5213 15.13875085656663"}}, "geometry": {"type": "Point", "coordinates": [-105.71299408393507, 75.2545380380521]}}, {"type": "Feature", "properties": {"norad_id": 33601, "name": "FENGYUN 1C DEB", "group": "fengyun-1c-debris", "lat": 24.155479970547955, "lon": -40.075357506689514, "alt_km": 752.2504345538637, "timestamp": "2025-12-05T09:41:19.416610+00:00", "meta": {"OBJECT_NAME": "FENGYUN 1C DEB", "OBJECT_ID": "1999-025DCJ", "EPOCH": "2025-11-28T21:43:48.473760", "MEAN_MOTION": 14.07801571, "ECCENTRICITY": 0.01586414, "INCLINATION": 98.3138, "RA_OF_ASC_NODE": 130.1771, "ARG_OF_PERICENTER": 181.8859, "MEAN_ANOMALY": 178.1734, "EPHEMERIS_TYPE": 0, "CLASSIFICATION_TYPE": "U", "NORAD_CAT_ID": 33601, "ELEMENT_SET_NO": 999, "REV_AT_EPOCH": 90485, "BSTAR": 0.0013995386, "MEAN_MOTION_DOT": 2.622e-05, "MEAN_MOTION_DDOT": 0}, "tle": {"line1": "1 33601U 99025DCJ 25332.90542215  .00002622  00000+0  13995-2 0  9991", "line2": "2 33601  98.3138 130.1771 0158641 181.8859 178.1734 14.07801571904853"}}, "geometry": {"type": "Point", "coordinates": [-40.075357506689514, 24.155479970547955]}}, {"type": "Feature", "properties": {"norad_id": 33603, "name": "FENGYUN 1C DEB", "group": "fengyun-1c-debris", "lat": 81.1095714679378, "lon": -167.81321306228764, "alt_km": 468.59895498419337, "timestamp": "2025-12-05T09:41:19.416620+00:00", "meta": {"OBJECT_NAME": "FENGYUN 1C DEB", "OBJECT_ID": "1999-025DCL", "EPOCH": "2025-12-04T13:49:34.372992", "MEAN_MOTION": 14.79865475, "ECCENTRICITY": 0.0220752, "INCLINATION": 98.8036, "RA_OF_ASC_NODE": 273.4782, "ARG_OF_PERICENTER": 98.2698, "MEAN_ANOMALY": 264.3608, "EPHEMERIS_TYPE": 0, "CLASSIFICATION_TYPE": "U", "NORAD_CAT_ID": 33603, "ELEMENT_SET_NO": 999, "REV_AT_EPOCH": 98739, "BSTAR": 0.00034795, "MEAN_MOTION_DOT": 3.905e-05, "MEAN_MOTION_DDOT": 0}, "tle": {"line1": "1 33603U 99025DCL 25338.57609228  .00003905  00000+0  34795-3 0  9997", "line2": "2 33603  98.8036 273.4782 0220752  98.2698 264.3608 14.79865475987395"}}, "geometry": {"type": "Point", "coordinates": [-167.81321306228764, 81.1095714679378]}}, {"type": "Feature", "properties": {"norad_id": 33605, "name": "FENGYUN 1C DEB", "group": "fengyun-1c-debris", "lat": 80.46848008612676, "lon": -135.5513891812777, "alt_km": 818.2349487044621, "timestamp": "2025-12-05T09:41:19.416631+00:00", "meta": {"OBJECT_NAME": "FENGYUN 1C DEB", "OBJECT_ID": "1999-025DCN", "EPOCH": "2025-11-29T06:37:27.772032", "MEAN_MOTION": 14.07732345, "ECCENTRICITY": 0.00571999, "INCLINATION": 98.6988, "RA_OF_ASC_NODE": 332.793, "ARG_OF_PERICENTER": 112.5488, "MEAN_ANOMALY": 264.4464, "EPHEMERIS_TYPE": 0, "CLASSIFICATION_TYPE": "U", "NORAD_CAT_ID": 33605, "ELEMENT_SET_NO": 999, "REV_AT_EPOCH": 59629, "BSTAR": 0.00056176503, "MEAN_MOTION_DOT": 9.23e-06, "MEAN_MOTION_DDOT": 0}, "tle": {"line1": "1 33605U 99025DCN 25333.27601588  .00000923  00000+0  56177-3 0  9997", "line2": "2 33605  98.6988 332.7930 0057199 112.5488 264.4464 14.07732345596291"}}, "geometry": {"type": "Point", "coordinates": [-135.5513891812777, 80.46848008612676]}}, {"type": "Feature", "properties": {"norad_id": 33612, "name": "FENGYUN 1C DEB", "group": "fengyun-1c-debris", "lat": 23.11017811591826, "lon": 132.71277513569058, "alt_km": 807.6843903326717, "timestamp": "2025-12-05T09:41:19.416641+00:00", "meta": {"OBJECT_NAME": "FENGYUN 1C DEB", "OBJECT_ID": "1999-025DCV", "EPOCH": "2025-12-02T09:07:04.428768", "MEAN_MOTION": 14.03995627, "ECCENTRICITY": 0.0111082, "INCLINATION": 98.599, "RA_OF_ASC_NODE": 306.1484, "ARG_OF_PERICENTER": 137.5735, "MEAN_ANOMALY": 223.4087, "EPHEMERIS_TYPE": 0, "CLASSIFICATION_TYPE": "U", "NORAD_CAT_ID": 33612, "ELEMENT_SET_NO": 999, "REV_AT_EPOCH": 56528, "BSTAR": 0.0015686766, "MEAN_MOTION_DOT": 2.58e-05, "MEAN_MOTION_DDOT": 0}, "tle": {"line1": "1 33612U 99025DCV 25336.37991237  .00002580  00000+0  15687-2 0  9993", "line2": "2 33612  98.5990 306.1484 0111082 137.5735 223.4087 14.03995627565285"}}, "geometry": {"type": "Point", "coordinates": [132.71277513569058, 23.11017811591826]}}, {"type": "Feature", "properties": {"norad_id": 33613, "name": "FENGYUN 1C DEB", "group": "fengyun-1c-debris", "lat": -70.14977241724156, "lon": -154.00650483233383, "alt_km": 806.8141600205963, "timestamp": "2025-12-05T09:41:19.416651+00:00", "meta": {"OBJECT_NAME": "FENGYUN 1C DEB", "OBJECT_ID": "1999-025DCW", "EPOCH": "2025-11-24T11:05:45.286080", "MEAN_MOTION": 14.32910608, "ECCENTRICITY": 0.0031489, "INCLINATION": 98.6979, "RA_OF_ASC_NODE": 40.1002, "ARG_OF_PERICENTER": 140.9568, "MEAN_ANOMALY": 219.3897, "EPHEMERIS_TYPE": 0, "CLASSIFICATION_TYPE": "U", "NORAD_CAT_ID": 33613, "ELEMENT_SET_NO": 999, "REV_AT_EPOCH": 64248, "BSTAR": 0.0024346, "MEAN_MOTION_DOT": 6.649e-05, "MEAN_MOTION_DDOT": 0}, "tle": {"line1": "1 33613U 99025DCW 25328.46232970  .00006649  00000+0  24346-2 0  9999", "line2": "2 33613  98.6979  40.1002 0031489 140.9568 219.3897 14.32910608642488"}}, "geometry": {"type": "Point", "coordinates": [-154.00650483233383, -70.14977241724156]}}, {"type": "Feature", "properties": {"norad_id": 33618, "name": "FENGYUN 1C DEB", "group": "fengyun-1c-debris", "lat": 80.10598075643455, "lon": -54.10699215828608, "alt_km": 634.0133866409842, "timestamp": "2025-12-05T09:41:19.416661+00:00", "meta": {"OBJECT_NAME": "FENGYUN 1C DEB", "OBJECT_ID": "1999-025DDB", "EPOCH": "2025-12-04T11:53:47.862240", "MEAN_MOTION": 14.61977989, "ECCENTRICITY": 0.0165262, "INCLINATION": 98.5318, "RA_OF_ASC_NODE": 65.564, "ARG_OF_PERICENTER": 165.8797, "MEAN_ANOMALY": 194.7106, "EPHEMERIS_TYPE": 0, "CLASSIFICATION_TYPE": "U", "NORAD_CAT_ID": 33618, "ELEMENT_SET_NO": 999, "REV_AT_EPOCH": 96663, "BSTAR": 0.0026185, "MEAN_MOTION_DOT": 0.00015933, "MEAN_MOTION_DDOT": 0}, "tle": {"line1": "1 33618U 99025DDB 25338.49569285  .00015933  00000+0  26185-2 0  9999", "line2": "2 33618  98.5318  65.5640 0165262 165.8797 194.7106 14.61977989966637"}}, "geometry": {"type": "Point", "coordinates": [-54.10699215828608, 80.10598075643455]}}]}